SL-16 R/B               
1 25400U 98043G   26003.61954699  .00000135  00000+0  75584-4 0  9996
2 25400  98.8154 316.5634 0009438 197.6473 162.4380 14.26031863429718
SL-16 R/B               
1 25407U 98045B   26003.30800556 -.00000051  00000+0 -14620-5 0  9997
2 25407  71.0127 319.0686 0005557 140.1931 219.9601 14.16181875417846
ISS (ZARYA)             
1 25544U 98067A   26003.53276902  .00013553  00000+0  25297-3 0  9999
2 25544  51.6327  34.5663 0007560 336.0107  24.0528 15.49066978546237
CZ-4B R/B               
1 25732U 99025C   26003.62999519  .00000151  00000+0  93437-4 0  9991
2 25732  98.6737  49.4171 0037288 170.6286 304.1482 14.18249953378944
OKEAN-O                 
1 25860U 99039A   26003.62449888  .00001402  00000+0  19135-3 0  9999
2 25860  97.9571  64.1339 0001354 113.2100 246.9255 14.80207329424760
SL-16 R/B               
1 25861U 99039B   26003.59860574  .00001200  00000+0  15912-3 0  9990
2 25861  98.0095  62.7480 0016106 107.3270 252.9706 14.81625586427220
DELTA 2 R/B             
1 25876U 99041E   26003.59292771  .00002877  00000+0  50063-3 0  9994
2 25876  51.7589 201.2061 0504125 156.1828 206.3338 14.11485855353834
HELIOS 1B               
1 25977U 99064A   26003.66802788  .00003898  00000+0  43746-3 0  9998
2 25977  98.1753 263.9845 0000420  48.8077 311.3175 14.87392881675596
TERRA                   
1 25994U 99068A   26003.66109838  .00000905  00000+0  19385-3 0  9995
2 25994  97.9717  59.5377 0003052  49.7584  62.8537 14.60932040385583
SL-16 R/B               
1 26070U 00006B   26003.65967970  .00000220  00000+0  13599-3 0  9994
2 26070  71.0017 234.5698 0018862 279.2441  80.6549 14.15814891339351
TITAN 4B R/B            
1 26474U 00047B   26003.61831636  .00005704  00000+0  36258-3 0  9991
2 26474  67.9880 223.4026 0037467 117.8686 242.6267 15.08968688383097
ENVISAT                 
1 27386U 02009A   25365.95019499  .00000264  00000+0  99422-4 0  9995
2 27386  98.3626 316.2065 0001107  88.1807 295.1197 14.39007536249430
